[{"OBJECT_NAME":"STARLINK-5413","OBJECT_ID":"2022-175BC","EPOCH":"2026-03-09T01:26:35.019456","MEAN_MOTION":15.08838431,"ECCENTRICITY":0.00014623,"INCLINATION":53.2183,"RA_OF_ASC_NODE":17.1182,"ARG_OF_PERICENTER":89.8611,"MEAN_ANOMALY":270.2549,"EPHEMERIS_TYPE":0,"CLASSIFICATION_TYPE":"U","NORAD_CAT_ID":54808,"ELEMENT_SET_NO":999,"REV_AT_EPOCH":18024,"BSTAR":2.3896267e-5,"MEAN_MOTION_DOT":9.2e-7,"MEAN_MOTION_DDOT":0},{"OBJECT_NAME":"OBJECT A","OBJECT_ID":"2024-110A","EPOCH":"2026-03-09T23:09:02.134656","MEAN_MOTION":15.1192128,"ECCENTRICITY":0.0007919,"INCLINATION":97.5675,"RA_OF_ASC_NODE":161.4531,"ARG_OF_PERICENTER":228.7681,"MEAN_ANOMALY":131.2868,"EPHEMERIS_TYPE":0,"CLASSIFICATION_TYPE":"U","NORAD_CAT_ID":60012,"ELEMENT_SET_NO":999,"REV_AT_EPOCH":9691,"BSTAR":0.00051932581,"MEAN_MOTION_DOT":8.842e-5,"MEAN_MOTION_DDOT":0}]
